[{"OBJECT_NAME":"STARLINK-3107","OBJECT_ID":"2021-082AT","EPOCH":"2026-03-09T21:59:27.140640","MEAN_MOTION":15.10504087,"ECCENTRICITY":0.00073375,"INCLINATION":69.9932,"RA_OF_ASC_NODE":287.3824,"ARG_OF_PERICENTER":250.2407,"MEAN_ANOMALY":109.7967,"EPHEMERIS_TYPE":0,"CLASSIFICATION_TYPE":"U","NORAD_CAT_ID":49171,"ELEMENT_SET_NO":999,"REV_AT_EPOCH":24733,"BSTAR":0.001517345,"MEAN_MOTION_DOT":0.00025048,"MEAN_MOTION_DDOT":0},{"OBJECT_NAME":"STARLINK-4495","OBJECT_ID":"2022-101AB","EPOCH":"2026-03-09T06:27:18.317664","MEAN_MOTION":15.08834588,"ECCENTRICITY":0.00014005,"INCLINATION":53.2191,"RA_OF_ASC_NODE":66.0096,"ARG_OF_PERICENTER":88.2328,"MEAN_ANOMALY":271.8825,"EPHEMERIS_TYPE":0,"CLASSIFICATION_TYPE":"U","NORAD_CAT_ID":53552,"ELEMENT_SET_NO":999,"REV_AT_EPOCH":19689,"BSTAR":5.4796201e-5,"MEAN_MOTION_DOT":5.84e-6,"MEAN_MOTION_DDOT":0}]
